[{"OBJECT_NAME":"STARLINK-5728","OBJECT_ID":"2023-020V","EPOCH":"2026-03-09T22:00:01.999584","MEAN_MOTION":15.12999401,"ECCENTRICITY":0.00012068,"INCLINATION":43.0006,"RA_OF_ASC_NODE":2.7584,"ARG_OF_PERICENTER":279.492,"MEAN_ANOMALY":348.9005,"EPHEMERIS_TYPE":0,"CLASSIFICATION_TYPE":"U","NORAD_CAT_ID":55588,"ELEMENT_SET_NO":999,"REV_AT_EPOCH":573,"BSTAR":0.026730069,"MEAN_MOTION_DOT":0.00510293,"MEAN_MOTION_DDOT":0},{"OBJECT_NAME":"MICE-1","OBJECT_ID":"2025-276U","EPOCH":"2026-03-09T18:17:39.683040","MEAN_MOTION":15.18401277,"ECCENTRICITY":0.00050387,"INCLINATION":97.4336,"RA_OF_ASC_NODE":144.0716,"ARG_OF_PERICENTER":357.2456,"MEAN_ANOMALY":2.875,"EPHEMERIS_TYPE":0,"CLASSIFICATION_TYPE":"U","NORAD_CAT_ID":66684,"ELEMENT_SET_NO":999,"REV_AT_EPOCH":1532,"BSTAR":0.00026807405,"MEAN_MOTION_DOT":5.448e-5,"MEAN_MOTION_DDOT":0}]
